{
  "type": "FeatureCollection",
  "features": [
    {
      "type": "Feature",
      "geometry": {
        "type": "Point",
        "coordinates": [
          88.4217,
          24.5598
        ]
      },
      "properties": {
        "cluster_id": 1,
        "cells": 315,
        "heat_risk": 0.425,
        "lst_c": 28.6
      }
    },
    {
      "type": "Feature",
      "geometry": {
        "type": "Point",
        "coordinates": [
          88.6114,
          24.4158
        ]
      },
      "properties": {
        "cluster_id": 3,
        "cells": 183,
        "heat_risk": 0.436,
        "lst_c": 28.48
      }
    },
    {
      "type": "Feature",
      "geometry": {
        "type": "Point",
        "coordinates": [
          89.0208,
          24.0431
        ]
      },
      "properties": {
        "cluster_id": 4,
        "cells": 2906,
        "heat_risk": 0.392,
        "lst_c": 28.36
      }
    },
    {
      "type": "Feature",
      "geometry": {
        "type": "Point",
        "coordinates": [
          90.3736,
          23.843
        ]
      },
      "properties": {
        "cluster_id": 7,
        "cells": 353,
        "heat_risk": 0.519,
        "lst_c": 28.6
      }
    },
    {
      "type": "Feature",
      "geometry": {
        "type": "Point",
        "coordinates": [
          89.588,
          23.8889
        ]
      },
      "properties": {
        "cluster_id": 8,
        "cells": 41,
        "heat_risk": 0.396,
        "lst_c": 28.21
      }
    },
    {
      "type": "Feature",
      "geometry": {
        "type": "Point",
        "coordinates": [
          89.6236,
          23.5222
        ]
      },
      "properties": {
        "cluster_id": 11,
        "cells": 1509,
        "heat_risk": 0.375,
        "lst_c": 28.33
      }
    },
    {
      "type": "Feature",
      "geometry": {
        "type": "Point",
        "coordinates": [
          89.9292,
          23.8094
        ]
      },
      "properties": {
        "cluster_id": 12,
        "cells": 40,
        "heat_risk": 0.386,
        "lst_c": 28.09
      }
    },
    {
      "type": "Feature",
      "geometry": {
        "type": "Point",
        "coordinates": [
          89.4686,
          23.25
        ]
      },
      "properties": {
        "cluster_id": 18,
        "cells": 203,
        "heat_risk": 0.375,
        "lst_c": 28.18
      }
    },
    {
      "type": "Feature",
      "geometry": {
        "type": "Point",
        "coordinates": [
          89.2098,
          23.1659
        ]
      },
      "properties": {
        "cluster_id": 21,
        "cells": 35,
        "heat_risk": 0.44,
        "lst_c": 28.46
      }
    },
    {
      "type": "Feature",
      "geometry": {
        "type": "Point",
        "coordinates": [
          91.8733,
          22.9099
        ]
      },
      "properties": {
        "cluster_id": 24,
        "cells": 130,
        "heat_risk": 0.358,
        "lst_c": 28.2
      }
    },
    {
      "type": "Feature",
      "geometry": {
        "type": "Point",
        "coordinates": [
          91.4507,
          22.9007
        ]
      },
      "properties": {
        "cluster_id": 25,
        "cells": 86,
        "heat_risk": 0.374,
        "lst_c": 28.08
      }
    },
    {
      "type": "Feature",
      "geometry": {
        "type": "Point",
        "coordinates": [
          89.5231,
          22.8055
        ]
      },
      "properties": {
        "cluster_id": 27,
        "cells": 92,
        "heat_risk": 0.472,
        "lst_c": 28.57
      }
    },
    {
      "type": "Feature",
      "geometry": {
        "type": "Point",
        "coordinates": [
          91.4931,
          22.7564
        ]
      },
      "properties": {
        "cluster_id": 30,
        "cells": 34,
        "heat_risk": 0.423,
        "lst_c": 28.39
      }
    },
    {
      "type": "Feature",
      "geometry": {
        "type": "Point",
        "coordinates": [
          91.6433,
          22.6268
        ]
      },
      "properties": {
        "cluster_id": 31,
        "cells": 83,
        "heat_risk": 0.373,
        "lst_c": 28.13
      }
    },
    {
      "type": "Feature",
      "geometry": {
        "type": "Point",
        "coordinates": [
          91.8124,
          22.6676
        ]
      },
      "properties": {
        "cluster_id": 32,
        "cells": 78,
        "heat_risk": 0.361,
        "lst_c": 28.17
      }
    },
    {
      "type": "Feature",
      "geometry": {
        "type": "Point",
        "coordinates": [
          91.087,
          22.6185
        ]
      },
      "properties": {
        "cluster_id": 33,
        "cells": 130,
        "heat_risk": 0.365,
        "lst_c": 28.22
      }
    },
    {
      "type": "Feature",
      "geometry": {
        "type": "Point",
        "coordinates": [
          92.0884,
          22.5861
        ]
      },
      "properties": {
        "cluster_id": 34,
        "cells": 70,
        "heat_risk": 0.37,
        "lst_c": 28.12
      }
    },
    {
      "type": "Feature",
      "geometry": {
        "type": "Point",
        "coordinates": [
          89.5186,
          22.5498
        ]
      },
      "properties": {
        "cluster_id": 35,
        "cells": 132,
        "heat_risk": 0.435,
        "lst_c": 28.7
      }
    },
    {
      "type": "Feature",
      "geometry": {
        "type": "Point",
        "coordinates": [
          92.2893,
          22.2973
        ]
      },
      "properties": {
        "cluster_id": 36,
        "cells": 1148,
        "heat_risk": 0.372,
        "lst_c": 28.37
      }
    },
    {
      "type": "Feature",
      "geometry": {
        "type": "Point",
        "coordinates": [
          89.2988,
          22.4628
        ]
      },
      "properties": {
        "cluster_id": 39,
        "cells": 129,
        "heat_risk": 0.472,
        "lst_c": 28.83
      }
    },
    {
      "type": "Feature",
      "geometry": {
        "type": "Point",
        "coordinates": [
          91.5091,
          22.4664
        ]
      },
      "properties": {
        "cluster_id": 40,
        "cells": 99,
        "heat_risk": 0.421,
        "lst_c": 28.57
      }
    },
    {
      "type": "Feature",
      "geometry": {
        "type": "Point",
        "coordinates": [
          91.9317,
          22.4997
        ]
      },
      "properties": {
        "cluster_id": 42,
        "cells": 38,
        "heat_risk": 0.365,
        "lst_c": 28.07
      }
    },
    {
      "type": "Feature",
      "geometry": {
        "type": "Point",
        "coordinates": [
          90.1655,
          22.2619
        ]
      },
      "properties": {
        "cluster_id": 43,
        "cells": 254,
        "heat_risk": 0.386,
        "lst_c": 28.21
      }
    },
    {
      "type": "Feature",
      "geometry": {
        "type": "Point",
        "coordinates": [
          90.4007,
          22.3235
        ]
      },
      "properties": {
        "cluster_id": 44,
        "cells": 404,
        "heat_risk": 0.377,
        "lst_c": 28.22
      }
    },
    {
      "type": "Feature",
      "geometry": {
        "type": "Point",
        "coordinates": [
          89.8117,
          22.3633
        ]
      },
      "properties": {
        "cluster_id": 46,
        "cells": 102,
        "heat_risk": 0.437,
        "lst_c": 28.65
      }
    },
    {
      "type": "Feature",
      "geometry": {
        "type": "Point",
        "coordinates": [
          92.1146,
          21.9666
        ]
      },
      "properties": {
        "cluster_id": 47,
        "cells": 942,
        "heat_risk": 0.39,
        "lst_c": 28.41
      }
    },
    {
      "type": "Feature",
      "geometry": {
        "type": "Point",
        "coordinates": [
          89.0881,
          22.3537
        ]
      },
      "properties": {
        "cluster_id": 48,
        "cells": 43,
        "heat_risk": 0.446,
        "lst_c": 28.16
      }
    },
    {
      "type": "Feature",
      "geometry": {
        "type": "Point",
        "coordinates": [
          91.1085,
          22.2284
        ]
      },
      "properties": {
        "cluster_id": 49,
        "cells": 249,
        "heat_risk": 0.41,
        "lst_c": 28.48
      }
    },
    {
      "type": "Feature",
      "geometry": {
        "type": "Point",
        "coordinates": [
          89.9661,
          22.2064
        ]
      },
      "properties": {
        "cluster_id": 50,
        "cells": 353,
        "heat_risk": 0.409,
        "lst_c": 28.57
      }
    },
    {
      "type": "Feature",
      "geometry": {
        "type": "Point",
        "coordinates": [
          89.1272,
          22.2645
        ]
      },
      "properties": {
        "cluster_id": 51,
        "cells": 33,
        "heat_risk": 0.473,
        "lst_c": 28.62
      }
    },
    {
      "type": "Feature",
      "geometry": {
        "type": "Point",
        "coordinates": [
          91.9577,
          22.1022
        ]
      },
      "properties": {
        "cluster_id": 54,
        "cells": 44,
        "heat_risk": 0.359,
        "lst_c": 28.24
      }
    },
    {
      "type": "Feature",
      "geometry": {
        "type": "Point",
        "coordinates": [
          90.2229,
          22.055
        ]
      },
      "properties": {
        "cluster_id": 55,
        "cells": 86,
        "heat_risk": 0.399,
        "lst_c": 28.19
      }
    },
    {
      "type": "Feature",
      "geometry": {
        "type": "Point",
        "coordinates": [
          90.5417,
          22.0501
        ]
      },
      "properties": {
        "cluster_id": 56,
        "cells": 27,
        "heat_risk": 0.379,
        "lst_c": 28.0
      }
    },
    {
      "type": "Feature",
      "geometry": {
        "type": "Point",
        "coordinates": [
          90.4263,
          21.9637
        ]
      },
      "properties": {
        "cluster_id": 58,
        "cells": 62,
        "heat_risk": 0.414,
        "lst_c": 28.29
      }
    },
    {
      "type": "Feature",
      "geometry": {
        "type": "Point",
        "coordinates": [
          90.2111,
          21.8958
        ]
      },
      "properties": {
        "cluster_id": 59,
        "cells": 145,
        "heat_risk": 0.448,
        "lst_c": 28.5
      }
    },
    {
      "type": "Feature",
      "geometry": {
        "type": "Point",
        "coordinates": [
          90.5558,
          21.9332
        ]
      },
      "properties": {
        "cluster_id": 60,
        "cells": 31,
        "heat_risk": 0.443,
        "lst_c": 28.57
      }
    },
    {
      "type": "Feature",
      "geometry": {
        "type": "Point",
        "coordinates": [
          92.1262,
          21.3956
        ]
      },
      "properties": {
        "cluster_id": 63,
        "cells": 56,
        "heat_risk": 0.363,
        "lst_c": 28.08
      }
    },
    {
      "type": "Feature",
      "geometry": {
        "type": "Point",
        "coordinates": [
          92.1426,
          21.164
        ]
      },
      "properties": {
        "cluster_id": 66,
        "cells": 180,
        "heat_risk": 0.396,
        "lst_c": 28.55
      }
    }
  ]
}